{
  "type": "FeatureCollection",
  "features": [
    {
      "type": "Feature",
      "properties": {
        "norad_id": 43783,
        "name": "KAZSTSAT",
        "group": "resource",
        "lat": -31.249018806469472,
        "lon": 38.60233866716236,
        "alt_km": 572.3899034262631,
        "timestamp": "2025-12-25T09:48:51.943977+00:00",
        "meta_object_name": "KAZSTSAT",
        "meta_object_id": "2018-099AB",
        "meta_epoch": "2025-12-25T01:56:47.065056",
        "meta_mean_motion": 14.99371736,
        "meta_eccentricity": 0.0006299,
        "meta_inclination": 97.4514,
        "meta_ra_of_asc_node": 33.7337,
        "meta_arg_of_pericenter": 275.0588,
        "meta_mean_anomaly": 84.9917,
        "meta_ephemeris_type": 0,
        "meta_classification_type": "U",
        "meta_norad_cat_id": 43783,
        "meta_element_set_no": 999,
        "meta_rev_at_epoch": 38521,
        "meta_bstar": 5.785e-05,
        "meta_mean_motion_dot": 6.52e-06,
        "meta_mean_motion_ddot": 0,
        "tle_line1": "1 43783U 18099AB  25359.08110029  .00000652  00000+0  57850-4 0  9998",
        "tle_line2": "2 43783  97.4514  33.7337 0006299 275.0588  84.9917 14.99371736385211"
      },
      "geometry": {
        "type": "Point",
        "coordinates": [
          38.60233866716236,
          -31.249018806469472
        ]
      }
    },
    {
      "type": "Feature",
      "properties": {
        "norad_id": 43831,
        "name": "SAUDISAT 5A",
        "group": "resource",
        "lat": 37.447041090199995,
        "lon": -114.98475770411092,
        "alt_km": 487.72872602352345,
        "timestamp": "2025-12-25T09:48:51.943987+00:00",
        "meta_object_name": "SAUDISAT 5A",
        "meta_object_id": "2018-102A",
        "meta_epoch": "2025-12-25T04:28:21.821088",
        "meta_mean_motion": 15.25807061,
        "meta_eccentricity": 0.0011049,
        "meta_inclination": 97.333,
        "meta_ra_of_asc_node": 59.1369,
        "meta_arg_of_pericenter": 37.4884,
        "meta_mean_anomaly": 322.7123,
        "meta_ephemeris_type": 0,
        "meta_classification_type": "U",
        "meta_norad_cat_id": 43831,
        "meta_element_set_no": 999,
        "meta_rev_at_epoch": 38912,
        "meta_bstar": 0.00028089,
        "meta_mean_motion_dot": 7.122e-05,
        "meta_mean_motion_ddot": 0,
        "tle_line1": "1 43831U 18102A   25359.18636367  .00007122  00000+0  28089-3 0  9996",
        "tle_line2": "2 43831  97.3330  59.1369 0011049  37.4884 322.7123 15.25807061389126"
      },
      "geometry": {
        "type": "Point",
        "coordinates": [
          -114.98475770411092,
          37.447041090199995
        ]
      }
    },
    {
      "type": "Feature",
      "properties": {
        "norad_id": 43833,
        "name": "SAUDISAT 5B",
        "group": "resource",
        "lat": -29.99600048594411,
        "lon": -122.15229313964261,
        "alt_km": 501.3643866915754,
        "timestamp": "2025-12-25T09:48:51.943997+00:00",
        "meta_object_name": "SAUDISAT 5B",
        "meta_object_id": "2018-102C",
        "meta_epoch": "2025-12-25T04:10:33.739104",
        "meta_mean_motion": 15.26153065,
        "meta_eccentricity": 0.0011791,
        "meta_inclination": 97.3425,
        "meta_ra_of_asc_node": 61.8857,
        "meta_arg_of_pericenter": 39.5208,
        "meta_mean_anomaly": 320.6888,
        "meta_ephemeris_type": 0,
        "meta_classification_type": "U",
        "meta_norad_cat_id": 43833,
        "meta_element_set_no": 999,
        "meta_rev_at_epoch": 38923,
        "meta_bstar": 0.00025232,
        "meta_mean_motion_dot": 6.458e-05,
        "meta_mean_motion_ddot": 0,
        "tle_line1": "1 43833U 18102C   25359.17400161  .00006458  00000+0  25232-3 0  9996",
        "tle_line2": "2 43833  97.3425  61.8857 0011791  39.5208 320.6888 15.26153065389238"
      },
      "geometry": {
        "type": "Point",
        "coordinates": [
          -122.15229313964261,
          -29.99600048594411
        ]
      }
    },
    {
      "type": "Feature",
      "properties": {
        "norad_id": 44622,
        "name": "GAOFEN-10R",
        "group": "resource",
        "lat": -16.43070097560053,
        "lon": -50.64845622167259,
        "alt_km": 620.6903804071007,
        "timestamp": "2025-12-25T09:48:51.944008+00:00",
        "meta_object_name": "GAOFEN-10R",
        "meta_object_id": "2019-066A",
        "meta_epoch": "2025-12-24T22:33:08.830656",
        "meta_mean_motion": 14.82832354,
        "meta_eccentricity": 0.00070184,
        "meta_inclination": 98.0294,
        "meta_ra_of_asc_node": 306.4946,
        "meta_arg_of_pericenter": 5.9714,
        "meta_mean_anomaly": 354.1582,
        "meta_ephemeris_type": 0,
        "meta_classification_type": "U",
        "meta_norad_cat_id": 44622,
        "meta_element_set_no": 999,
        "meta_rev_at_epoch": 33655,
        "meta_bstar": 0.00021319024,
        "meta_mean_motion_dot": 1.671e-05,
        "meta_mean_motion_ddot": 0,
        "tle_line1": "1 44622U 19066A   25358.93968554  .00001671  00000+0  21319-3 0  9995",
        "tle_line2": "2 44622  98.0294 306.4946 0007018   5.9714 354.1582 14.82832354336556"
      },
      "geometry": {
        "type": "Point",
        "coordinates": [
          -50.64845622167259,
          -16.43070097560053
        ]
      }
    },
    {
      "type": "Feature",
      "properties": {
        "norad_id": 44804,
        "name": "CARTOSAT-3",
        "group": "resource",
        "lat": 3.3846072879212024,
        "lon": 58.386261276519974,
        "alt_km": 503.5231957685646,
        "timestamp": "2025-12-25T09:48:51.944018+00:00",
        "meta_object_name": "CARTOSAT-3",
        "meta_object_id": "2019-081A",
        "meta_epoch": "2025-12-25T05:03:26.252928",
        "meta_mean_motion": 15.1925446,
        "meta_eccentricity": 0.0013637,
        "meta_inclination": 97.4564,
        "meta_ra_of_asc_node": 58.6344,
        "meta_arg_of_pericenter": 44.2291,
        "meta_mean_anomaly": 316.0031,
        "meta_ephemeris_type": 0,
        "meta_classification_type": "U",
        "meta_norad_cat_id": 44804,
        "meta_element_set_no": 999,
        "meta_rev_at_epoch": 33705,
        "meta_bstar": 0.00015683,
        "meta_mean_motion_dot": 3.244e-05,
        "meta_mean_motion_ddot": 0,
        "tle_line1": "1 44804U 19081A   25359.21072052  .00003244  00000+0  15683-3 0  9990",
        "tle_line2": "2 44804  97.4564  58.6344 0013637  44.2291 316.0031 15.19254460337058"
      },
      "geometry": {
        "type": "Point",
        "coordinates": [
          58.386261276519974,
          3.3846072879212024
        ]
      }
    },
    {
      "type": "Feature",
      "properties": {
        "norad_id": 44819,
        "name": "GAOFEN-12 01",
        "group": "resource",
        "lat": 27.160145104092464,
        "lon": -170.60332513036937,
        "alt_km": 624.7549585731886,
        "timestamp": "2025-12-25T09:48:51.944028+00:00",
        "meta_object_name": "GAOFEN-12 01",
        "meta_object_id": "2019-082A",
        "meta_epoch": "2025-12-25T04:15:44.743680",
        "meta_mean_motion": 14.80671342,
        "meta_eccentricity": 0.0002218,
        "meta_inclination": 97.8125,
        "meta_ra_of_asc_node": 5.1321,
        "meta_arg_of_pericenter": 178.417,
        "meta_mean_anomaly": 181.705,
        "meta_ephemeris_type": 0,
        "meta_classification_type": "U",
        "meta_norad_cat_id": 44819,
        "meta_element_set_no": 999,
        "meta_rev_at_epoch": 32834,
        "meta_bstar": 7.1775e-05,
        "meta_mean_motion_dot": 5.01e-06,
        "meta_mean_motion_ddot": 0,
        "tle_line1": "1 44819U 19082A   25359.17760120  .00000501  00000+0  71775-4 0  9990",
        "tle_line2": "2 44819  97.8125   5.1321 0002218 178.4170 181.7050 14.80671342328341"
      },
      "geometry": {
        "type": "Point",
        "coordinates": [
          -170.60332513036937,
          27.160145104092464
        ]
      }
    },
    {
      "type": "Feature",
      "properties": {
        "norad_id": 44873,
        "name": "CSG-1",
        "group": "resource",
        "lat": -28.489980408229368,
        "lon": -175.1467283937023,
        "alt_km": 628.7843196830181,
        "timestamp": "2025-12-25T09:48:51.944038+00:00",
        "meta_object_name": "CSG-1",
        "meta_object_id": "2019-092A",
        "meta_epoch": "2025-12-25T03:27:46.993824",
        "meta_mean_motion": 14.8216069,
        "meta_eccentricity": 0.0001472,
        "meta_inclination": 97.8805,
        "meta_ra_of_asc_node": 180.2816,
        "meta_arg_of_pericenter": 84.6197,
        "meta_mean_anomaly": 275.5184,
        "meta_ephemeris_type": 0,
        "meta_classification_type": "U",
        "meta_norad_cat_id": 44873,
        "meta_element_set_no": 999,
        "meta_rev_at_epoch": 32569,
        "meta_bstar": 8.4394e-05,
        "meta_mean_motion_dot": 6.2e-06,
        "meta_mean_motion_ddot": 0,
        "tle_line1": "1 44873U 19092A   25359.14429391  .00000620  00000+0  84394-4 0  9993",
        "tle_line2": "2 44873  97.8805 180.2816 0001472  84.6197 275.5184 14.82160690325694"
      },
      "geometry": {
        "type": "Point",
        "coordinates": [
          -175.1467283937023,
          -28.489980408229368
        ]
      }
    }
  ]
}